{
  "type": "FeatureCollection",
  "features": [
    {
      "type": "Feature",
      "properties": {
        "norad_id": 35594,
        "name": "COSMOS 2251 DEB",
        "group": "cosmos-2251-debris",
        "lat": -4.18296382914396,
        "lon": -64.15179334629482,
        "alt_km": 592.0540925118448,
        "timestamp": "2025-12-08T17:43:05.334246+00:00",
        "meta_object_name": "COSMOS 2251 DEB",
        "meta_object_id": "1993-036AMM",
        "meta_epoch": "2025-12-07T08:36:46.253952",
        "meta_mean_motion": 14.87678735,
        "meta_eccentricity": 0.00307761,
        "meta_inclination": 73.8078,
        "meta_ra_of_asc_node": 117.4177,
        "meta_arg_of_pericenter": 228.8319,
        "meta_mean_anomaly": 131.0205,
        "meta_ephemeris_type": 0,
        "meta_classification_type": "U",
        "meta_norad_cat_id": 35594,
        "meta_element_set_no": 999,
        "meta_rev_at_epoch": 88105,
        "meta_bstar": 0.0027400309,
        "meta_mean_motion_dot": 0.00025228,
        "meta_mean_motion_ddot": 0,
        "tle_line1": "1 35594U 93036AMM 25341.35886868  .00025228  00000+0  27400-2 0  9997",
        "tle_line2": "2 35594  73.8078 117.4177 0030776 228.8319 131.0205 14.87678735881055"
      },
      "geometry": {
        "type": "Point",
        "coordinates": [
          -64.15179334629482,
          -4.18296382914396
        ]
      }
    },
    {
      "type": "Feature",
      "properties": {
        "norad_id": 35602,
        "name": "COSMOS 2251 DEB",
        "group": "cosmos-2251-debris",
        "lat": -21.555293979582526,
        "lon": -175.69433835240247,
        "alt_km": 455.30707230357166,
        "timestamp": "2025-12-08T17:43:05.334256+00:00",
        "meta_object_name": "COSMOS 2251 DEB",
        "meta_object_id": "1993-036AMV",
        "meta_epoch": "2025-12-08T07:24:09.153792",
        "meta_mean_motion": 15.34851294,
        "meta_eccentricity": 0.00903072,
        "meta_inclination": 73.9934,
        "meta_ra_of_asc_node": 191.7408,
        "meta_arg_of_pericenter": 258.4764,
        "meta_mean_anomaly": 224.238,
        "meta_ephemeris_type": 0,
        "meta_classification_type": "U",
        "meta_norad_cat_id": 35602,
        "meta_element_set_no": 999,
        "meta_rev_at_epoch": 90023,
        "meta_bstar": 0.00052145663,
        "meta_mean_motion_dot": 0.00020153,
        "meta_mean_motion_ddot": 0,
        "tle_line1": "1 35602U 93036AMV 25342.30843928  .00020153  00000+0  52146-3 0  9991",
        "tle_line2": "2 35602  73.9934 191.7408 0090307 258.4764 224.2380 15.34851294900235"
      },
      "geometry": {
        "type": "Point",
        "coordinates": [
          -175.69433835240247,
          -21.555293979582526
        ]
      }
    },
    {
      "type": "Feature",
      "properties": {
        "norad_id": 35605,
        "name": "COSMOS 2251 DEB",
        "group": "cosmos-2251-debris",
        "lat": 50.479268496574434,
        "lon": 5.798496332787546,
        "alt_km": 478.7303163399747,
        "timestamp": "2025-12-08T17:43:05.334267+00:00",
        "meta_object_name": "COSMOS 2251 DEB",
        "meta_object_id": "1993-036AMY",
        "meta_epoch": "2025-12-08T06:30:45.442656",
        "meta_mean_motion": 15.31621462,
        "meta_eccentricity": 0.00289889,
        "meta_inclination": 73.8707,
        "meta_ra_of_asc_node": 346.268,
        "meta_arg_of_pericenter": 282.3176,
        "meta_mean_anomaly": 77.4782,
        "meta_ephemeris_type": 0,
        "meta_classification_type": "U",
        "meta_norad_cat_id": 35605,
        "meta_element_set_no": 999,
        "meta_rev_at_epoch": 65903,
        "meta_bstar": 0.0068655908,
        "meta_mean_motion_dot": 0.00218489,
        "meta_mean_motion_ddot": 0,
        "tle_line1": "1 35605U 93036AMY 25342.27135929  .00218489  00000+0  68656-2 0  9998",
        "tle_line2": "2 35605  73.8707 346.2680 0028988 282.3176  77.4782 15.31621462659035"
      },
      "geometry": {
        "type": "Point",
        "coordinates": [
          5.798496332787546,
          50.479268496574434
        ]
      }
    },
    {
      "type": "Feature",
      "properties": {
        "norad_id": 35606,
        "name": "COSMOS 2251 DEB",
        "group": "cosmos-2251-debris",
        "lat": -24.70917021608762,
        "lon": 9.495563614814763,
        "alt_km": 1217.8380953210644,
        "timestamp": "2025-12-08T17:43:05.334277+00:00",
        "meta_object_name": "COSMOS 2251 DEB",
        "meta_object_id": "1993-036AMZ",
        "meta_epoch": "2025-12-06T08:34:07.137120",
        "meta_mean_motion": 13.41197641,
        "meta_eccentricity": 0.04578135,
        "meta_inclination": 73.8109,
        "meta_ra_of_asc_node": 20.9706,
        "meta_arg_of_pericenter": 227.6256,
        "meta_mean_anomaly": 128.5237,
        "meta_ephemeris_type": 0,
        "meta_classification_type": "U",
        "meta_norad_cat_id": 35606,
        "meta_element_set_no": 999,
        "meta_rev_at_epoch": 60954,
        "meta_bstar": 0.0018916944,
        "meta_mean_motion_dot": 1.924e-05,
        "meta_mean_motion_ddot": 0,
        "tle_line1": "1 35606U 93036AMZ 25340.35702705  .00001924  00000+0  18917-2 0  9997",
        "tle_line2": "2 35606  73.8109  20.9706 0457813 227.6256 128.5237 13.41197641609541"
      },
      "geometry": {
        "type": "Point",
        "coordinates": [
          9.495563614814763,
          -24.70917021608762
        ]
      }
    },
    {
      "type": "Feature",
      "properties": {
        "norad_id": 35611,
        "name": "COSMOS 2251 DEB",
        "group": "cosmos-2251-debris",
        "lat": 0.60158899103591,
        "lon": -172.72734919132768,
        "alt_km": 657.8957551734247,
        "timestamp": "2025-12-08T17:43:05.334288+00:00",
        "meta_object_name": "COSMOS 2251 DEB",
        "meta_object_id": "1993-036ANE",
        "meta_epoch": "2025-12-07T23:46:52.346496",
        "meta_mean_motion": 14.72654945,
        "meta_eccentricity": 0.0021935,
        "meta_inclination": 74.0173,
        "meta_ra_of_asc_node": 188.5564,
        "meta_arg_of_pericenter": 261.817,
        "meta_mean_anomaly": 98.0514,
        "meta_ephemeris_type": 0,
        "meta_classification_type": "U",
        "meta_norad_cat_id": 35611,
        "meta_element_set_no": 999,
        "meta_rev_at_epoch": 87220,
        "meta_bstar": 0.0026626176,
        "meta_mean_motion_dot": 0.00017044,
        "meta_mean_motion_ddot": 0,
        "tle_line1": "1 35611U 93036ANE 25341.99088364  .00017044  00000+0  26626-2 0  9998",
        "tle_line2": "2 35611  74.0173 188.5564 0021935 261.8170  98.0514 14.72654945872205"
      },
      "geometry": {
        "type": "Point",
        "coordinates": [
          -172.72734919132768,
          0.60158899103591
        ]
      }
    },
    {
      "type": "Feature",
      "properties": {
        "norad_id": 35614,
        "name": "COSMOS 2251 DEB",
        "group": "cosmos-2251-debris",
        "lat": -22.70720540557559,
        "lon": 162.14049294357181,
        "alt_km": 623.4024333487359,
        "timestamp": "2025-12-08T17:43:05.334299+00:00",
        "meta_object_name": "COSMOS 2251 DEB",
        "meta_object_id": "1993-036ANH",
        "meta_epoch": "2025-12-05T08:35:34.166976",
        "meta_mean_motion": 14.66905481,
        "meta_eccentricity": 0.00762912,
        "meta_inclination": 73.9585,
        "meta_ra_of_asc_node": 341.7759,
        "meta_arg_of_pericenter": 198.0285,
        "meta_mean_anomaly": 161.8178,
        "meta_ephemeris_type": 0,
        "meta_classification_type": "U",
        "meta_norad_cat_id": 35614,
        "meta_element_set_no": 999,
        "meta_rev_at_epoch": 87621,
        "meta_bstar": 0.0016552596,
        "meta_mean_motion_dot": 9.649e-05,
        "meta_mean_motion_ddot": 0,
        "tle_line1": "1 35614U 93036ANH 25339.35803434  .00009649  00000+0  16553-2 0  9991",
        "tle_line2": "2 35614  73.9585 341.7759 0076291 198.0285 161.8178 14.66905481876212"
      },
      "geometry": {
        "type": "Point",
        "coordinates": [
          162.14049294357181,
          -22.70720540557559
        ]
      }
    },
    {
      "type": "Feature",
      "properties": {
        "norad_id": 35645,
        "name": "COSMOS 2251 DEB",
        "group": "cosmos-2251-debris",
        "lat": -48.73419440908546,
        "lon": -65.63977081082449,
        "alt_km": 701.094383541872,
        "timestamp": "2025-12-08T17:43:05.334309+00:00",
        "meta_object_name": "COSMOS 2251 DEB",
        "meta_object_id": "1993-036ANL",
        "meta_epoch": "2025-12-08T01:41:49.099488",
        "meta_mean_motion": 14.45466188,
        "meta_eccentricity": 0.00693731,
        "meta_inclination": 73.964,
        "meta_ra_of_asc_node": 96.4758,
        "meta_arg_of_pericenter": 254.7329,
        "meta_mean_anomaly": 104.6152,
        "meta_ephemeris_type": 0,
        "meta_classification_type": "U",
        "meta_norad_cat_id": 35645,
        "meta_element_set_no": 999,
        "meta_rev_at_epoch": 86704,
        "meta_bstar": 0.0029502414,
        "meta_mean_motion_dot": 0.00010695,
        "meta_mean_motion_ddot": 0,
        "tle_line1": "1 35645U 93036ANL 25342.07070717  .00010695  00000+0  29502-2 0  9999",
        "tle_line2": "2 35645  73.9640  96.4758 0069373 254.7329 104.6152 14.45466188867044"
      },
      "geometry": {
        "type": "Point",
        "coordinates": [
          -65.63977081082449,
          -48.73419440908546
        ]
      }
    }
  ]
}